NORAD_CAT_ID,OBJECT_NAME,OBJECT_TYPE,EPOCH,MEAN_MOTION,ECCENTRICITY,INCLINATION,RA_OF_ASC_NODE,ARG_OF_PERICENTER,MEAN_ANOMALY,BSTAR,MEAN_MOTION_DOT,MEAN_MOTION_DDOT,TLE_LINE0,TLE_LINE1,TLE_LINE2,SEMIMAJOR_AXIS,PERIOD,APOGEE,PERIGEE,DECAYED
52859.0,STARLINK-4196,PAYLOAD,2022-10-25 00:00:00,15.08775441,0.0001578,53.215,153.3785,58.5773,249.8111,0.0053523,0.0008577999999999,0.0,0 STARLINK-4196,1 52859U 22062AF  22298.00001157  .00085780  00000-0  53523-2 0  9996,2 52859  53.2150 153.3785 0001578  58.5773 249.8111 15.08775441 20476,6918.078,95.442,541.034,538.851,0.0
52859.0,STARLINK-4196,PAYLOAD,2022-10-25 14:00:01,15.08831802,0.0001421,53.2151,150.7577,67.1262,171.5061,0.0015075,0.0002378,0.0,0 STARLINK-4196,1 52859U 22062AF  22298.58334491  .00023780  00000-0  15075-2 0  9991,2 52859  53.2151 150.7577 0001421  67.1262 171.5061 15.08831802 20562,6917.905,95.438,540.753,538.7869999999998,0.0
52859.0,STARLINK-4196,PAYLOAD,2022-10-25 22:00:01,15.08836052,0.0001571,53.215,149.2629,58.6681,191.6265,0.00062342,9.647e-05,0.0,0 STARLINK-4196,1 52859U 22062AF  22298.91668981  .00009647  00000-0  62342-3 0  9998,2 52859  53.2150 149.2629 0001571  58.6681 191.6265 15.08836052  1300,6917.892,95.438,540.844,538.6709999999998,0.0
52859.0,STARLINK-4196,PAYLOAD,2022-10-26 08:00:01,15.08849724,0.0001448,53.2151,147.391,62.9891,291.8055,-0.0001419,-2.546e-05,0.0,0 STARLINK-4196,1 52859U 22062AF  22299.33335648 -.00002546  00000-0 -14190-3 0  9997,2 52859  53.2151 147.3910 0001448  62.9891 291.8055 15.08849724 20678,6917.851,95.437,540.717,538.714,0.0
52859.0,STARLINK-4196,PAYLOAD,2022-10-26 14:00:01,15.08851946,0.0001431,53.2151,146.2683,67.869,205.5646,0.0012579,0.00019795,0.0,0 STARLINK-4196,1 52859U 22062AF  22299.58334491  .00019795  00000-0  12579-2 0  9999,2 52859  53.2151 146.2683 0001431  67.8690 205.5646 15.08851946  1302,6917.844,95.437,540.6990000000002,538.719,0.0
52859.0,STARLINK-4196,PAYLOAD,2022-10-26 22:00:00,15.08861685,0.0001575999999999,53.2163,144.7769,58.1882,226.8568,-0.0020015,-0.0003202,0.0,0 STARLINK-4196,1 52859U 22062AF  22299.91667824 -.00032020  00000-0 -20015-2 0  9997,2 52859  53.2163 144.7769 0001576  58.1882 226.8568 15.08861685  1309,6917.814,95.436,540.769,538.589,0.0
52859.0,STARLINK-4196,PAYLOAD,2022-10-27 14:00:01,15.08842695,0.0001334,53.2151,141.7788,67.3303,240.9875,0.00093511,0.00014627,0.0,0 STARLINK-4196,1 52859U 22062AF  22300.58335648  .00014627  00000-0  93511-3 0  9992,2 52859  53.2151 141.7788 0001334  67.3303 240.9875 15.08842695  1304,6917.871999999999,95.437,540.66,538.814,0.0
52859.0,STARLINK-4196,PAYLOAD,2022-10-27 22:00:00,15.08836307,0.000149,53.215,140.2841,58.4922,261.3707,0.0011756,0.00018469,0.0,0 STARLINK-4196,1 52859U 22062AF  22300.91667824  .00018469  00000-0  11756-2 0  9991,2 52859  53.2150 140.2841 0001490  58.4922 261.3707 15.08836307  1302,6917.892,95.438,540.7869999999998,538.726,0.0
52859.0,STARLINK-4196,PAYLOAD,2022-10-28 14:00:01,15.08834902,0.0001448,53.215,137.2896,70.2576,272.867,0.00043634,6.662e-05,0.0,0 STARLINK-4196,1 52859U 22062AF  22301.58335648  .00006662  00000-0  43634-3 0  9994,2 52859  53.2150 137.2896 0001448  70.2576 272.8670 15.08834902  1303,6917.896,95.438,540.763,538.759,0.0
52859.0,STARLINK-4196,PAYLOAD,2022-10-28 22:00:01,15.08821527,0.0001576999999999,53.2149,135.7949,61.7545,292.9656,0.0015729,0.00024821,0.0,0 STARLINK-4196,1 52859U 22062AF  22301.91668981  .00024821  00000-0  15729-2 0  9990,2 52859  53.2149 135.7949 0001577  61.7545 292.9656 15.08821527  1303,6917.937,95.439,540.893,538.711,0.0
52859.0,STARLINK-4196,PAYLOAD,2022-10-29 12:00:00,15.08838964,0.0001385999999999,53.2147,133.1742,70.1303,214.8159,-0.00044788,-7.409e-05,0.0,0 STARLINK-4196,1 52859U 22062AF  22302.50001157 -.00007409  00000-0 -44788-3 0  9995,2 52859  53.2147 133.1742 0001386  70.1303 214.8159 15.08838964  1302,6917.884,95.438,540.707,538.79,0.0
52859.0,STARLINK-4196,PAYLOAD,2022-10-29 22:00:01,15.0881195,0.0001489,53.2149,131.3058,59.705,329.7974,0.0022103,0.00035037,0.0,0 STARLINK-4196,1 52859U 22062AF  22302.91668981  .00035037  00000-0  22103-2 0  9996,2 52859  53.2149 131.3058 0001489  59.7050 329.7974 15.08811950  1307,6917.965999999999,95.439,540.861,538.8009999999998,0.0
52859.0,STARLINK-4196,PAYLOAD,2022-10-30 00:00:00,15.08809906,0.0001467,53.2146,130.9317,57.3759,64.9585,0.0030473,0.00048504,0.0,0 STARLINK-4196,1 52859U 22062AF  22303.00001157  .00048504  00000-0  30473-2 0  9995,2 52859  53.2146 130.9317 0001467  57.3759  64.9585 15.08809906 21231,6917.972,95.439,540.852,538.823,0.0
52859.0,STARLINK-4196,PAYLOAD,2022-10-30 14:00:01,15.08861302,0.0001375999999999,53.2149,128.3116,66.7153,345.8825,-0.0030646,-0.00048759,0.0,0 STARLINK-4196,1 52859U 22062AF  22303.58334491 -.00048759  00000-0 -30646-2 0  9994,2 52859  53.2149 128.3116 0001376  66.7153 345.8825 15.08861302  1305,6917.815,95.436,540.632,538.7280000000002,0.0
52859.0,STARLINK-4196,PAYLOAD,2022-10-30 22:00:01,15.08797499,0.0001431999999999,53.215,126.8167,56.2279,8.0412,0.0025643,0.00040711,0.0,0 STARLINK-4196,1 52859U 22062AF  22303.91668981  .00040711  00000-0  25643-2 0  9994,2 52859  53.2150 126.8167 0001432  56.2279   8.0412 15.08797499  1307,6918.01,95.44,540.866,538.885,0.0
52859.0,STARLINK-4196,PAYLOAD,2022-10-31 14:00:01,15.08841329,0.0001385999999999,53.2152,123.8225,63.7501,23.5902,-0.00074732,-0.00012162,0.0,0 STARLINK-4196,1 52859U 22062AF  22304.58334491 -.00012162  00000-0 -74732-3 0  9999,2 52859  53.2152 123.8225 0001386  63.7501  23.5902 15.08841329  1308,6917.876,95.437,540.7,538.783,0.0
52859.0,STARLINK-4196,PAYLOAD,2022-10-31 22:00:01,15.08813525,0.0001506,53.2154,122.3277,54.5725,44.4302,0.0030542,0.0004862,0.0,0 STARLINK-4196,1 52859U 22062AF  22304.91668981  .00048620  00000-0  30542-2 0  9996,2 52859  53.2154 122.3277 0001506  54.5725  44.4302 15.08813525  1304,6917.9609999999975,95.439,540.868,538.784,0.0
52859.0,STARLINK-4196,PAYLOAD,2022-11-01 00:00:02,15.08825152,0.0001508,53.2152,121.9534,53.2942,138.6009,0.0022221999999999,0.00035241,0.0,0 STARLINK-4196,1 52859U 22062AF  22305.00002315  .00035241  00000-0  22222-2 0  9991,2 52859  53.2152 121.9534 0001508  53.2942 138.6009 15.08825152 21538,6917.926,95.438,540.8340000000002,538.748,0.0
52859.0,STARLINK-4196,PAYLOAD,2022-11-01 14:00:01,15.08864169,0.0001446,53.2158,119.3334,61.6938,60.4281,-0.00099534,-0.00016104,0.0,0 STARLINK-4196,1 52859U 22062AF  22305.58334491 -.00016104  00000-0 -99534-3 0  9997,2 52859  53.2158 119.3334 0001446  61.6938  60.4281 15.08864169  1300,6917.807,95.436,540.672,538.6709999999998,0.0
52859.0,STARLINK-4196,PAYLOAD,2022-11-01 22:00:00,15.08841343,0.0001520999999999,53.2158,117.8384,52.1432,81.6029,0.00024236,3.571e-05,0.0,0 STARLINK-4196,1 52859U 22062AF  22305.91667824  .00003571  00000-0  24236-3 0  9992,2 52859  53.2158 117.8384 0001521  52.1432  81.6029 15.08841343 21672,6917.876,95.437,540.793,538.689,0.0
52859.0,STARLINK-4196,PAYLOAD,2022-11-02 14:00:01,15.08836753,0.0001476999999999,53.2165,114.8452,60.4707,96.4649,-0.0016555999999999,-0.00026538,0.0,0 STARLINK-4196,1 52859U 22062AF  22306.58334491 -.00026538  00000-0 -16556-2 0  9992,2 52859  53.2165 114.8452 0001477  60.4707  96.4649 15.08836753  1309,6917.89,95.438,540.7769999999998,538.734,0.0
52859.0,STARLINK-4196,PAYLOAD,2022-11-02 18:04:37,15.08833839,0.0001468,53.2169,114.0814,60.4504,299.6634,5.944e-05,6.58e-06,0.0,0 STARLINK-4196,1 52859U 22062AF  22306.75321425  .00000658  00000-0  59440-4 0  9998,2 52859  53.2169 114.0814 0001468  60.4504 299.6634 15.08833839 21790,6917.899,95.438,540.78,538.749,0.0
52859.0,STARLINK-4196,PAYLOAD,2022-11-03 09:58:29,15.08835307,0.0001504,53.2171,111.1079,61.5967,298.5177,-4.6408e-05,-1.026e-05,0.0,0 STARLINK-4196,1 52859U 22062AF  22307.41561849 -.00001026  00000-0 -46408-4 0  9990,2 52859  53.2171 111.1079 0001504  61.5967 298.5177 15.08835307 21400,6917.895,95.438,540.8,538.719,0.0
52859.0,STARLINK-4196,PAYLOAD,2022-11-03 16:20:01,15.08840915,0.0001527,53.2174,109.9186,62.2563,297.8583,-2.9723000000000007e-06,-3.35e-06,0.0,0 STARLINK-4196,1 52859U 22062AF  22307.68057375 -.00000335  00000-0 -29723-5 0  9997,2 52859  53.2174 109.9186 0001527  62.2563 297.8583 15.08840915 21440,6917.878000000002,95.437,540.799,538.686,0.0
52859.0,STARLINK-4196,PAYLOAD,2022-11-04 09:49:15,15.08846116,0.0001607,53.2181,106.6481,65.4125,294.7034,0.00016206,2.293e-05,0.0,0 STARLINK-4196,1 52859U 22062AF  22308.40920322  .00002293  00000-0  16206-3 0  9992,2 52859  53.2181 106.6481 0001607  65.4125 294.7034 15.08846116 22041,6917.861999999999,95.437,540.8380000000002,538.615,0.0
52859.0,STARLINK-4196,PAYLOAD,2022-11-04 11:24:38,15.08845515,0.0001614,53.2181,106.3505,65.51,294.6061,0.00015792,2.227e-05,0.0,0 STARLINK-4196,1 52859U 22062AF  22308.47544423  .00002227  00000-0  15792-3 0  9999,2 52859  53.2181 106.3505 0001614  65.5100 294.6061 15.08845515 21564,6917.864000000001,95.437,540.845,538.612,0.0
52859.0,STARLINK-4196,PAYLOAD,2022-11-04 14:35:26,15.08792741,0.000179,53.2172,105.7543,66.4352,293.6828,0.0007678,0.00011937,0.0,0 STARLINK-4196,1 52859U 22062AF  22308.60794162  .00011937  00000-0  76780-3 0  9993,2 52859  53.2172 105.7543 0001790  66.4352 293.6828 15.08792741 22072,6918.025,95.441,541.128,538.6519999999998,0.0
52859.0,STARLINK-4196,PAYLOAD,2022-11-05 09:40:04,15.08829319,0.000171,53.2164,102.1864,35.0225,325.0879,-5.6952e-05,-1.194e-05,0.0,0 STARLINK-4196,1 52859U 22062AF  22309.40282559 -.00001194  00000-0 -56952-4 0  9990,2 52859  53.2164 102.1864 0001710  35.0225 325.0879 15.08829319 21700,6917.913000000001,95.438,540.961,538.595,0.0
52859.0,STARLINK-4196,PAYLOAD,2022-11-05 14:26:13,15.08833116,0.0001933,53.218,101.2967,53.1101,307.0068,2.1031e-05,4.7e-07,0.0,0 STARLINK-4196,1 52859U 22062AF  22309.60154261  .00000047  00000-0  21031-4 0  9994,2 52859  53.2180 101.2967 0001933  53.1101 307.0068 15.08833116 21736,6917.901,95.438,541.104,538.429,0.0
